{
    "links": {
        "self": "http://www.neowsapp.com/rest/v1/neo/3602573?api_key=iIulBulltgU6a56xZRHN4H3l9WmuAYTsLGpBGhQ2"
    },
    "id": "3602573",
    "neo_reference_id": "3602573",
    "name": "(2012 GW11)",
    "designation": "2012 GW11",
    "nasa_jpl_url": "http://ssd.jpl.nasa.gov/sbdb.cgi?sstr=3602573",
    "absolute_magnitude_h": 26.4,
    "estimated_diameter": {
        "kilometers": {
            "estimated_diameter_min": 0.0139493823,
            "estimated_diameter_max": 0.0311917671
        },
        "meters": {
            "estimated_diameter_min": 13.9493822934,
            "estimated_diameter_max": 31.1917670523
        },
        "miles": {
            "estimated_diameter_min": 0.0086677416,
            "estimated_diameter_max": 0.0193816595
        },
        "feet": {
            "estimated_diameter_min": 45.7656914036,
            "estimated_diameter_max": 102.3351970157
        }
    },
    "is_potentially_hazardous_asteroid": false,
    "close_approach_data": [
        {
            "close_approach_date": "1934-10-25",
            "close_approach_date_full": "1934-Oct-25 12:57",
            "epoch_date_close_approach": -1110366180000,
            "relative_velocity": {
                "kilometers_per_second": "29.5110457268",
                "kilometers_per_hour": "106239.7646165747",
                "miles_per_hour": "66013.2581863378"
            },
            "miss_distance": {
                "astronomical": "0.4175142093",
                "lunar": "162.4130274177",
                "kilometers": "62459236.406014191",
                "miles": "38810369.8419341958"
            },
            "orbiting_body": "Earth"
        },
        {
            "close_approach_date": "2010-04-04",
            "close_approach_date_full": "2010-Apr-04 07:34",
            "epoch_date_close_approach": 1270366440000,
            "relative_velocity": {
                "kilometers_per_second": "25.2593026523",
                "kilometers_per_hour": "90933.4895482904",
                "miles_per_hour": "56502.5341029364"
            },
            "miss_distance": {
                "astronomical": "0.2714287735",
                "lunar": "105.5857928915",
                "kilometers": "40605166.372312445",
                "miles": "25230880.412283941"
            },
            "orbiting_body": "Earth"
        },
        {
            "close_approach_date": "2012-04-18",
            "close_approach_date_full": "2012-Apr-18 16:14",
            "epoch_date_close_approach": 1334765640000,
            "relative_velocity": {
                "kilometers_per_second": "17.1882283361",
                "kilometers_per_hour": "61877.6220097854",
                "miles_per_hour": "38448.3479649136"
            },
            "miss_distance": {
                "astronomical": "0.0126841625",
                "lunar": "4.9341392125",
                "kilometers": "1897523.692733875",
                "miles": "1179066.548622475"
            },
            "orbiting_body": "Earth"
        }
    ],
    "orbital_data": {
        "orbit_id": "5",
        "orbit_determination_date": "2017-04-06 08:50:08",
        "first_observation_date": "2012-04-14",
        "last_observation_date": "2012-04-18",
        "data_arc_in_days": 4,
        "observations_used": 26,
        "orbit_uncertainty": "8",
        "minimum_orbit_intersection": ".00784082",
        "jupiter_tisserand_invariant": "4.129",
        "epoch_osculation": "2456032.5",
        "eccentricity": ".5685839685104066",
        "semi_major_axis": "1.61185978152522",
        "inclination": "10.43691926533665",
        "ascending_node_longitude": "205.9498529432348",
        "orbital_period": "747.4623388932064",
        "perihelion_distance": ".6953821502632935",
        "perihelion_argument": "83.89293082972098",
        "aphelion_distance": "2.528337412787147",
        "perihelion_time": "2456086.412065979811",
        "mean_anomaly": "334.0343523106856",
        "mean_motion": ".4816296169959072",
        "equinox": "J2000",
        "orbit_class": {
            "orbit_class_type": "APO",
            "orbit_class_description": "Near-Earth asteroid orbits which cross the Earth’s orbit similar to that of 1862 Apollo",
            "orbit_class_range": "a (semi-major axis) > 1.0 AU; q (perihelion) < 1.017 AU"
        }
    },
    "is_sentry_object": false
}